NORAD_CAT_ID,OBJECT_NAME,OBJECT_TYPE,EPOCH,MEAN_MOTION,ECCENTRICITY,INCLINATION,RA_OF_ASC_NODE,ARG_OF_PERICENTER,MEAN_ANOMALY,BSTAR,MEAN_MOTION_DOT,MEAN_MOTION_DDOT,TLE_LINE0,TLE_LINE1,TLE_LINE2,SEMIMAJOR_AXIS,PERIOD,APOGEE,PERIGEE,DECAYED
55318.0,STARLINK-5180,PAYLOAD,2023-04-05 10:40:41,15.69930616,0.000341,70.0003,215.467,259.7979,100.2832,2.8163e-05,3.176e-05,0.0,0 STARLINK-5180,1 55318U 23010BB  23095.44492398  .00003176  00000-0  28163-4 0  9991,2 55318  70.0003 215.4670 0003410 259.7979 100.2832 15.69930616 13618,6737.233,91.724,361.395,356.8,0.0
55318.0,STARLINK-5180,PAYLOAD,2023-04-05 16:47:41,15.69937892,0.0003441,70.0001,214.7482,253.6194,106.4623,2.3654e-05,2.634e-05,0.0,0 STARLINK-5180,1 55318U 23010BB  23095.69978318  .00002634  00000-0  23654-4 0  9997,2 55318  70.0001 214.7482 0003441 253.6194 106.4623 15.69937892 12466,6737.212,91.723,361.395,356.758,0.0
55318.0,STARLINK-5180,PAYLOAD,2023-04-06 11:08:42,15.69941323,0.0002719,70.0007,212.6004,232.6877,127.4071,-4.4634e-05,-5.579e-05,0.0,0 STARLINK-5180,1 55318U 23010BB  23096.46438217 -.00005579  00000-0 -44634-4 0  9996,2 55318  70.0007 212.6004 0002719 232.6877 127.4071 15.69941323 13770,6737.202,91.723,360.899,357.235,0.0
55318.0,STARLINK-5180,PAYLOAD,2023-04-06 17:15:44,15.69920079,0.0002782,70.0006,211.8845,243.7382,116.3528,-8.0515e-06,-1.18e-05,0.0,0 STARLINK-5180,1 55318U 23010BB  23096.71926076 -.00001180  00000-0 -80515-5 0  9992,2 55318  70.0006 211.8845 0002782 243.7382 116.3528 15.69920079 12629,6737.263,91.724,361.002,357.253,0.0
55318.0,STARLINK-5180,PAYLOAD,2023-04-07 10:05:00,15.69928032,0.0003656,69.9992,209.9151,265.0064,95.0714,7.4373e-06,6.82e-06,0.0,0 STARLINK-5180,1 55318U 23010BB  23097.42014183  .00000682  00000-0  74373-5 0  9997,2 55318  69.9992 209.9151 0003656 265.0064  95.0714 15.69928032 13924,6737.24,91.724,361.568,356.642,0.0
55318.0,STARLINK-5180,PAYLOAD,2023-04-07 17:43:45,15.69930887,0.000362,69.9992,209.0194,265.2706,94.8076,1.0108e-05,1.003e-05,0.0,0 STARLINK-5180,1 55318U 23010BB  23097.73872248  .00001003  00000-0  10108-4 0  9998,2 55318  69.9992 209.0194 0003620 265.2706  94.8076 15.69930887 12780,6737.232,91.724,361.536,356.658,0.0
55318.0,STARLINK-5180,PAYLOAD,2023-04-08 10:33:02,15.69917852,0.0002986,69.9984,207.047,255.5084,104.5781,-3.0005e-06,-5.73e-06,0.0,0 STARLINK-5180,1 55318U 23010BB  23098.43961802 -.00000573  00000-0 -30005-5 0  9993,2 55318  69.9984 207.0470 0002986 255.5084 104.5781 15.69917852 12892,6737.269,91.725,361.146,357.122,0.0
55318.0,STARLINK-5180,PAYLOAD,2023-04-08 16:40:02,15.69924658,0.0002934,69.9992,206.3334,257.9818,102.1049,9.2622e-06,9.01e-06,0.0,0 STARLINK-5180,1 55318U 23010BB  23098.69447834  .00000901  00000-0  92622-5 0  9991,2 55318  69.9992 206.3334 0002934 257.9818 102.1049 15.69924658 12934,6737.25,91.724,361.091,357.138,0.0
55318.0,STARLINK-5180,PAYLOAD,2023-04-09 00:18:47,15.69930367,0.0003489,69.9982,205.4368,263.9931,96.0868,1.8212e-05,1.978e-05,0.0,0 STARLINK-5180,1 55318U 23010BB  23099.01305546  .00001978  00000-0  18212-4 0  9998,2 55318  69.9982 205.4368 0003489 263.9931  96.0868 15.69930367 12988,6737.233,91.724,361.449,356.748,0.0
55318.0,STARLINK-5180,PAYLOAD,2023-04-09 07:57:34,15.69922198,0.0002883,69.9992,204.5421,262.2911,97.7958,1.9985e-06,2.8e-07,0.0,0 STARLINK-5180,1 55318U 23010BB  23099.33164883  .00000028  00000-0  19985-5 0  9994,2 55318  69.9992 204.5421 0002883 262.2911  97.7958 15.69922198 13034,6737.257,91.724,361.064,357.179,0.0
55318.0,STARLINK-5180,PAYLOAD,2023-04-09 09:29:19,15.699215,0.0002857,69.9988,204.3629,262.5632,97.524,-2.8113e-06,-5.5e-06,0.0,0 STARLINK-5180,1 55318U 23010BB  23099.39536696 -.00000550  00000-0 -28113-5 0  9990,2 55318  69.9988 204.3629 0002857 262.5632  97.5240 15.69921500 14232,6737.259,91.724,361.048,357.199,0.0
55318.0,STARLINK-5180,PAYLOAD,2023-04-09 17:08:03,15.69939544,0.0003411,70.0003,203.4656,252.873,107.2092,2.6542e-05,2.982e-05,0.0,0 STARLINK-5180,1 55318U 23010BB  23099.71393066  .00002982  00000-0  26542-4 0  9990,2 55318  70.0003 203.4656 0003411 252.8730 107.2092 15.69939544 13095,6737.207,91.723,361.37,356.774,0.0
55318.0,STARLINK-5180,PAYLOAD,2023-04-10 08:25:36,15.69913563,0.0003465,70.0,201.6753,261.0106,99.0697,1.5962e-05,1.706e-05,0.0,0 STARLINK-5180,1 55318U 23010BB  23100.35111570  .00001706  00000-0  15962-4 0  9998,2 55318  70.0000 201.6753 0003465 261.0106  99.0697 15.69913563 13191,6737.281,91.725,361.481,356.812,0.0
55318.0,STARLINK-5180,PAYLOAD,2023-04-11 08:53:38,15.6991162,0.000352,69.9983,198.8084,265.4039,94.6754,5.9421e-06,5.01e-06,0.0,0 STARLINK-5180,1 55318U 23010BB  23101.37058906  .00000501  00000-0  59421-5 0  9995,2 55318  69.9983 198.8084 0003520 265.4039  94.6754 15.69911620 13352,6737.287,91.725,361.523,356.78,0.0
55318.0,STARLINK-5180,PAYLOAD,2023-04-12 09:21:40,15.69907582,0.0003351,69.9971,195.9396,263.2437,96.8378,-1.5737e-06,-4.02e-06,0.0,0 STARLINK-5180,1 55318U 23010BB  23102.39005753 -.00000402  00000-0 -15737-5 0  9994,2 55318  69.9971 195.9396 0003351 263.2437  96.8378 15.69907582 13519,6737.298,91.725,361.421,356.906,0.0
55318.0,STARLINK-5180,PAYLOAD,2023-04-12 12:25:10,15.69912054,0.0003316,69.9966,195.5821,261.3409,98.7411,4.8677e-06,3.72e-06,0.0,0 STARLINK-5180,1 55318U 23010BB  23102.51748775  .00000372  00000-0  48677-5 0  9999,2 55318  69.9966 195.5821 0003316 261.3409  98.7411 15.69912054 14724,6737.286,91.725,361.385,356.917,0.0
55318.0,STARLINK-5180,PAYLOAD,2023-04-13 08:17:57,15.69919369,0.0003313,69.9981,193.2551,268.612,91.4697,1.5231e-05,1.619e-05,0.0,0 STARLINK-5180,1 55318U 23010BB  23103.34580134  .00001619  00000-0  15231-4 0  9998,2 55318  69.9981 193.2551 0003313 268.6120  91.4697 15.69919369 14859,6737.265,91.724,361.362,356.898,0.0
55318.0,STARLINK-5180,PAYLOAD,2023-04-14 08:45:58,15.69934784,0.0002642,69.9989,190.391,257.1676,102.9225,-2.8244e-06,-5.52e-06,0.0,0 STARLINK-5180,1 55318U 23010BB  23104.36526202 -.00000552  00000-0 -28244-5 0  9993,2 55318  69.9989 190.3910 0002642 257.1676 102.9225 15.69934784 15019,6737.221,91.724,360.866,357.306,0.0
55318.0,STARLINK-5180,PAYLOAD,2023-04-14 17:56:30,15.69919486,0.00038,69.998,189.3159,271.7964,88.2796,3.0223e-06,1.5e-06,0.0,0 STARLINK-5180,1 55318U 23010BB  23104.74757071  .00000150  00000-0  30223-5 0  9997,2 55318  69.9980 189.3159 0003800 271.7964  88.2796 15.69919486 13886,6737.264,91.724,361.69,356.569,0.0
55318.0,STARLINK-5180,PAYLOAD,2023-04-15 09:14:01,15.69926783,0.0003597,69.9979,187.527,268.5153,91.5631,-1.2471e-06,-3.63e-06,0.0,0 STARLINK-5180,1 55318U 23010BB  23105.38473433 -.00000363  00000-0 -12471-5 0  9998,2 55318  69.9979 187.5270 0003597 268.5153  91.5631 15.69926783 13989,6737.243,91.724,361.532,356.685,0.0
55318.0,STARLINK-5180,PAYLOAD,2023-04-15 13:49:15,15.69939982,0.0003268,69.9971,186.9872,266.9071,93.175,-1.2474e-05,-1.713e-05,0.0,0 STARLINK-5180,1 55318U 23010BB  23105.57587809 -.00001713  00000-0 -12474-4 0  9994,2 55318  69.9971 186.9872 0003268 266.9071  93.1750 15.69939982 15200,6737.206,91.723,361.272,356.869,0.0
55318.0,STARLINK-5180,PAYLOAD,2023-04-15 16:52:46,15.69921827,0.0003261,69.9967,186.6268,274.2111,85.8711,1.3219e-05,1.377e-05,0.0,0 STARLINK-5180,1 55318U 23010BB  23105.70331886  .00001377  00000-0  13219-4 0  9993,2 55318  69.9967 186.6268 0003261 274.2111  85.8711 15.69921827 15227,6737.258,91.724,361.32,356.926,0.0
55318.0,STARLINK-5180,PAYLOAD,2023-04-16 12:45:33,15.69927048,0.0003155,69.9984,184.2973,269.2692,90.8142,-8.6541e-06,-1.253e-05,0.0,0 STARLINK-5180,1 55318U 23010BB  23106.53163684 -.00001253  00000-0 -86541-5 0  9998,2 55318  69.9984 184.2973 0003155 269.2692  90.8142 15.69927048 14160,6737.243,91.724,361.233,356.982,0.0
55318.0,STARLINK-5180,PAYLOAD,2023-04-16 17:20:49,15.69915921,0.000347,69.9977,183.7623,278.2066,81.8736,3.3149e-06,1.86e-06,0.0,0 STARLINK-5180,1 55318U 23010BB  23106.72279245  .00000186  00000-0  33149-5 0  9998,2 55318  69.9977 183.7623 0003470 278.2066  81.8736 15.69915921 15384,6737.275,91.725,361.477,356.802,0.0
55318.0,STARLINK-5180,PAYLOAD,2023-04-17 13:13:35,15.69920567,0.0003828,69.9974,181.4328,284.2619,75.8151,1.0648e-05,1.067e-05,0.0,0 STARLINK-5180,1 55318U 23010BB  23107.55110571  .00001067  00000-0  10648-4 0  9993,2 55318  69.9974 181.4328 0003828 284.2619  75.8151 15.69920567 15517,6737.261,91.724,361.705,356.547,0.0
55318.0,STARLINK-5180,PAYLOAD,2023-04-17 16:17:05,15.69919723,0.0003746,69.9969,181.074,278.1914,81.8856,1.0562e-05,1.057e-05,0.0,0 STARLINK-5180,1 55318U 23010BB  23107.67853935  .00001057  00000-0  10562-4 0  9998,2 55318  69.9969 181.0740 0003746 278.1914  81.8856 15.69919723 15537,6737.264,91.724,361.652,356.605,0.0
55318.0,STARLINK-5180,PAYLOAD,2023-04-18 07:34:37,15.69902099,0.0003476,69.9968,179.2834,273.2113,86.8685,4.728e-05,5.471e-05,0.0,0 STARLINK-5180,1 55318U 23010BB  23108.31571015  .00005471  00000-0  47280-4 0  9997,2 55318  69.9968 179.2834 0003476 273.2113  86.8685 15.69902099 15630,6737.314,91.725,361.521,356.837,0.0
55318.0,STARLINK-5180,PAYLOAD,2023-04-18 16:45:08,15.69914793,0.0003459,69.9974,178.2085,271.1067,88.9733,4.0871e-06,2.78e-06,0.0,0 STARLINK-5180,1 55318U 23010BB  23108.69801246  .00000278  00000-0  40871-5 0  9990,2 55318  69.9974 178.2085 0003459 271.1067  88.9733 15.69914793 14506,6737.278,91.725,361.473,356.812,0.0
55318.0,STARLINK-5180,PAYLOAD,2023-04-19 04:59:08,15.6992241,0.0004431,69.9974,176.7753,266.1634,93.9055,2.032e-06,3.1e-07,0.0,0 STARLINK-5180,1 55318U 23010BB  23109.20774012  .00000031  00000-0  20320-5 0  9992,2 55318  69.9974 176.7753 0004431 266.1634  93.9055 15.69922410 14582,6737.256,91.724,362.106,356.136,0.0
55318.0,STARLINK-5180,PAYLOAD,2023-04-19 08:02:38,15.69923187,0.0003621,69.9968,176.4151,271.8661,88.212,1.8222e-05,1.979e-05,0.0,0 STARLINK-5180,1 55318U 23010BB  23109.33516985  .00001979  00000-0  18222-4 0  9998,2 55318  69.9968 176.4151 0003621 271.8661  88.2120 15.69923187 15793,6737.254,91.724,361.558,356.679,0.0
